#dP2024  2 27  0  0  0.00000000      97 __u+U IGS20 FIT  IAC
## 2303 172800.00000000   900.00000000 60367 0.0000000000000
+  118   C06C07C08C09C10C11C12C13C14C16C19C20C21C22C23C24C25
+        C26C27C28C29C30C32C33C34C35C36C37C38C39C40C41C42C43
+        C44C45C46E02E03E04E05E07E08E09E10E11E12E13E14E15E18
+        E19E21E24E25E26E27E30E31E33E34E36G01G02G03G04G05G06
+        G07G08G09G10G11G12G13G14G15G16G17G18G19G20G21G22G23
+        G24G25G26G27G28G29G30G31G32J02J03J04R01R02R03R04R05
+        R07R08R09R11R12R13R14R15R16R17R18R19R20R21R22R24  0
++         7  7  7  7  7  6  7  7  7  7  5  5  6  5  6  6  5
++         6  6  5  5  6  6  6  6  6  5  6  6  6  6  6  6  6
++         6  6  5  4  4  4  4  4  4  4  4  4  4  4  4  4  4
++         4  4  4  4  4  4  4  4  4  4  4  4  3  3  3  3  3
++         3  4  3  3  3  3  3  3  3  3  3  3  3  3  3  3  3
++         3  3  3  3  3  3  3  3  3 11 12 11  7  7  7  7  6
++         7  6  6  7  7  8  6  6  6  6  6  8  8  7  7  6  0
%c M  cc GPS ccc cccc cccc cccc cccc ccccc ccccc ccccc ccccc
%c cc cc ccc ccc cccc cccc cccc cccc ccccc ccccc ccccc ccccc
%f  1.2500000  1.025000000  0.00000000000  0.000000000000000
%f  0.0000000  0.000000000  0.00000000000  0.000000000000000
%i    0    0    0    0      0      0      0      0         0
%i    0    0    0    0      0      0      0      0         0
/* INFORMATION & ANALYSIS CENTER (IAC)            FINAL DATA
/* S/V CLOCKS ARE ALIGNED TO GNSS TIME                      
/* G:C1WC2W R:C1PC2P E:C1XC5X C:C2IC6I J:C1CC2S             
/* PCV:IGS20_2290 OL/AL:FES2004  NONE     YN ORB:CoN CLK:CoN
*  2024 02 27 15  0  0.00000000
PC06 -18875.863260  30396.764196 -22494.629641    237.232004
PC07  -6163.064366  38952.051431 -14541.089022   -869.746348
PC08  -3392.768474  20772.608697  36552.559499      5.451255
PC09 -12048.286494  29147.402001 -27828.747578   -547.708102
PC10     75.100746  41004.685638  -8148.939976     67.602374
PC11 -21479.636049  15073.977487  -9422.213978    432.411576
PC12 -17086.333635  -2430.521940 -21892.431536    760.120309
PC13   5349.128486  24840.313753  33879.679551    420.860758
PC14 -13842.100691   7590.500408  23025.893846    284.951457
PC16 -21978.079705  29875.987207 -20087.302158   -364.696817
PC19   8238.252725 -17103.446550 -20433.291030   -923.186015
PC20  16606.636622   1115.650904 -22377.758951   -204.094695
PC21 -15636.867693 -20428.918248  10865.183416   -961.585922
PC22  -5314.072604 -26593.917706  -6637.801501    -94.274457
PC23   1332.656173  16599.562576 -22397.875132   -778.641375
PC24 -27627.972658  -1942.075165  -3328.644200    923.238395
PC25 -17872.723225  10981.728223 -18408.908995    336.434017
PC26 -21246.554454 -12399.525729  13121.823269   -255.201571
PC27  11584.474704  11057.516049  22833.921724    277.154771
PC28  -3012.393152  22094.478369  16785.365959    211.070054
PC29  17596.593660 -21615.702300   1291.981761    247.440517
PC30  20606.339308  -6669.984122  17573.524532    -30.622858
PC32  15746.863785  20360.308212 -10742.321757   -574.177727
PC33  -8259.568019  17037.550220  20501.342518   -952.355101
PC34 -20947.241249   8177.284718 -16554.822986    378.521946
PC35   2213.837256 -22259.114858 -16672.176800    423.756586
PC36  18535.462550 -10319.639557  18149.701682     -0.056859
PC37  20674.194506  13066.963790 -13460.060633   -939.524892
PC38 -12556.997715  19148.092222  35450.011896    139.432731
PC39 -25526.242707  30497.031174 -14280.533299     -7.330501
PC40 -11011.428596  36217.591787 -18280.103583    -58.374563
PC41   4764.721352  26462.805651   7497.295252   -896.982253
PC42 -17083.424932  -2926.981379  21924.964996   -450.823552
PC43 -18089.740251  21154.363963  -2203.150140     62.069265
PC44 -12036.949640 -10819.049612 -22747.042295    397.232843
PC45  -1486.128635 -16489.622983  22451.856015    -72.672363
PC46  27576.176842   1460.614610   4159.063002   -127.283223
PE02  -2631.200316  18900.903437 -22644.854852    106.851617
PE03  -8463.397457  28191.379691   3076.105933    -96.644505
PE04  -5227.699109 -24954.637108  15047.977930   -337.163284
PE05 -16992.665923  14917.768420  19107.602995   4724.041572
PE07  15509.218728   7611.399150 -24026.342225   -106.009260
PE08   4659.985978  25352.500083 -14538.460904   -230.509861
PE09 -15334.357012  -7729.499353  24115.630897   -351.263057
PE10 -17935.217172  -8982.759747 -21770.869179   -605.195639
PE11 -25578.270792  -2008.788498 -14786.284786   3218.319153
PE12  -8520.662601 -14013.769342 -24642.824652   -924.690118
PE13  25181.567416   2420.786914  15363.253467    -20.329860
PE14 -18004.185503  10593.339479 -17409.046670     51.378616
PE15   7862.308629  14187.644657  24768.040651    -88.187722
PE18  13269.605683 -26562.160281   6631.433344    374.755521
PE19   9883.264294 -27415.367218  -5169.084368   -534.120621
PE21  18645.614779  -4039.463638  22624.166949   -581.187097
PE24 -24385.961140 -14101.026293  -9072.905967   -621.611901
PE25 -18888.047886   3689.497534 -22490.804375      1.437157
PE26  27285.470249 -10925.279125  -3467.310924    381.016449
PE27  24456.755174  13795.821250   9381.123199   -285.310117
PE30  15528.301641  23389.698620  -9425.089862    -40.304166
PE31 -15778.238354 -23276.766790   9227.760102    -16.983924
PE33  14341.572876 -17397.838810 -19170.736343      8.227246
PE34 -13761.440989  17488.481036  19517.760980    -96.991233
PE36 -27507.406837  10574.890083   2874.755127   -191.813485
PG01  -5246.473570 -13770.123749 -22450.500718    171.358924
PG02   4099.913077 -16581.897859 -19777.151676   -478.835926
PG03  -8028.712649 -20552.277310 -15017.477148    219.618104
PG04    966.078671 -25466.165073   7243.459884    302.033575
PG05  -4203.473542  15236.305199  21157.419794   -163.387577
PG06 -25730.653396   5442.426870  -4043.640085    390.225315
PG07 -17069.705312  -8680.140289  19087.934144    -71.901391
PG08   5536.641071 -25679.873737   1591.587711     14.760926
PG09  -9203.022401 -17776.917545  17348.332039    106.351594
PG10  21962.223316   8277.534891 -12533.370022      1.128779
PG11 -22396.457951  11912.722914   7813.896037   -589.761338
PG12   5748.994453  21120.536609 -15377.991152   -482.081717
PG13 -13522.511659  21078.516204   8298.011313    629.373530
PG14 -22166.992927 -11401.649446  -9416.816703    336.755049
PG15  -2270.255833  26292.927790   1223.373144    132.079273
PG16  11054.721048 -10181.576313  21565.950650   -353.312671
PG17 -14094.669228  -4587.308087 -21614.714528    715.582526
PG18  17727.600832   7510.523290  18391.165014   -564.621832
PG19 -16311.125048   5086.188004 -20423.430637    446.536770
PG20 -15736.583912   7193.732679  20170.991904    385.921284
PG21   9054.276913 -17091.840996 -17258.896204    133.387779
PG22 -20224.547711  -5468.755124 -15723.274288     24.405966
PG23  20967.767190  16424.000004  -1252.685133    165.270728
PG24  -5381.177636  17870.000132 -19160.696251   -438.410775
PG25  15721.381031  20403.420655  -7371.306170    489.828788
PG26  19439.414465  -2066.657450  17986.914214    185.644464
PG27  12652.598036 -19296.587026  12479.142952     -7.603746
PG28  25293.917835  -4263.825250  -6898.840749   -145.474686
PG29   6158.481059  19695.123888  16612.362845   -606.070711
PG30 -24162.714564   -870.037488  11425.824719   -427.006234
PG31  24825.827171  -9634.534485   2620.563591   -227.892259
PG32  15191.930055    692.552224 -21559.843442   -613.700514
PJ02 -22786.173662  18877.724408 -25422.906152     -2.377677
PJ03 -29961.086456  29219.561653  10234.195538     -0.227611
PJ04 -25026.236982  28792.992399  23885.897939     50.817403
PR01  -8099.625434 -23352.100347   6339.776806     78.272784
PR02 -11439.048949 -10573.443995  20227.487477    -22.533090
PR03  -9094.633393   8493.170620  22328.101547     95.337913
PR04  -1848.899520  22306.189840  12282.503988    225.255847
PR05   6286.944487  24336.971260  -4400.465599    127.570245
PR07   8796.537218  -9303.711722 -22006.675558     76.751853
PR08   1553.313569 -22449.834783 -11913.871636    -74.566399
PR09  24166.097163   8006.203083   -615.518070    172.342541
PR11   6319.539795  -9336.346900  22885.342379     32.964092
PR12 -13718.514462 -13325.541025  16887.884130     37.202836
PR13 -23515.966340  -9387.631207   3046.628682    -44.767369
PR14 -20250.382089   1098.805445 -15478.472410     26.118517
PR15  -4873.570762   9999.967403 -22942.531240     81.830224
PR16  13567.313361  13149.727902 -17117.629317     23.599153
PR17 -20590.266268  13699.836887  -6170.501050     64.631533
PR18 -14682.778779  18161.528905  10343.042268    129.504039
PR19  -3050.407888  14192.588788  20976.546662   -267.400174
PR20  14943.306399     77.763788  20667.105664   -108.946093
PR21  20696.535813 -13677.014793   5979.426437    -80.312065
PR22  14330.071160 -17865.569584 -11185.353204    110.163926
PR24 -15587.430618    721.206789 -20158.320654    -45.626889
EOF
